{
"type": "FeatureCollection",
"name": "suggested_net",
"crs": { "type": "name", "properties": { "name": "urn:ogc:def:crs:OGC:1.3:CRS84" } },
"features": [
{ "type": "Feature", "properties": { }, "geometry": { "type": "LineString", "coordinates": [ [ -122.509487108898981, 37.779935127831571 ], [ -122.509276188392832, 37.7763753768158 ], [ -122.509078440365769, 37.775258043579946 ], [ -122.510985345117959, 37.774940323930956 ], [ -122.510878703163769, 37.773334898288532 ], [ -122.510059286939068, 37.773168669816783 ], [ -122.509924746304989, 37.771353781195721 ], [ -122.484158909262916, 37.772546402617621 ], [ -122.485196549894056, 37.78771683663652 ], [ -122.485309267906629, 37.78836862437624 ], [ -122.484781381848322, 37.788412838270922 ], [ -122.484572179233567, 37.788993436841601 ], [ -122.489411738008982, 37.788502776875802 ], [ -122.489769205184572, 37.787666945640801 ], [ -122.489804590816732, 37.786783197840833 ], [ -122.491743250482941, 37.786163541549747 ], [ -122.492971176421278, 37.786610782680079 ], [ -122.492581533529133, 37.78358523192334 ], [ -122.492506176444678, 37.781747322042264 ], [ -122.509452422916169, 37.780749104365746 ], [ -122.509572874900726, 37.780261133219909 ] ] } },
{ "type": "Feature", "properties": { }, "geometry": { "type": "LineString", "coordinates": [ [ -122.50280821254016, 37.788234421996258 ], [ -122.51142805905792, 37.792271297629746 ] ] } }
]
}
