{
"type": "FeatureCollection",
"name": "manhattan",
"crs": { "type": "name", "properties": { "name": "urn:ogc:def:crs:OGC:1.3:CRS84" } },
"features": [
{ "type": "Feature", "properties": { }, "geometry": { "type": "Polygon", "coordinates": [ [ [ -73.983352742209462, 40.709583758237187 ], [ -73.981379512184375, 40.709866771193333 ], [ -73.981220017858448, 40.710392622169365 ], [ -73.978020215217327, 40.710554213551518 ], [ -73.974873564857774, 40.715162317280914 ], [ -73.97161999724139, 40.727611355906731 ], [ -73.971459972511511, 40.729308801099592 ], [ -73.973592450816227, 40.731452539164252 ], [ -73.974743067281693, 40.736381614597576 ], [ -73.972674683346625, 40.735744388679194 ], [ -73.97244459055419, 40.739978296704834 ], [ -73.971906747800872, 40.743112908182155 ], [ -73.968539004621505, 40.746708654532171 ], [ -73.96594876396999, 40.750763734740985 ], [ -73.95269922323746, 40.763929149448074 ], [ -73.942132386056514, 40.776058424307536 ], [ -73.943964991179612, 40.781917621893939 ], [ -73.938603902876977, 40.7866140884245 ], [ -73.936997122792107, 40.789919652688553 ], [ -73.930031262959076, 40.794905384953836 ], [ -73.928879542093739, 40.801047056713003 ], [ -73.933781052411021, 40.807772078257273 ], [ -73.934624411381108, 40.809858515642333 ], [ -73.935235356698456, 40.833621842895468 ], [ -73.934934767328983, 40.835242078464717 ], [ -73.922169088961382, 40.856125666560672 ], [ -73.915730360979055, 40.863356426907785 ], [ -73.910746603558678, 40.869960268280238 ], [ -73.910828327181051, 40.872908800954178 ], [ -73.915198396657559, 40.874646765724776 ], [ -73.921012565251502, 40.875340699370895 ], [ -73.920173730960457, 40.873257417942256 ], [ -73.921781284302313, 40.873257378595184 ], [ -73.922551650409133, 40.875458124305936 ], [ -73.923159252498522, 40.877135695389171 ], [ -73.926527633252803, 40.877424402624172 ], [ -73.93020371777375, 40.875167144421766 ], [ -73.932501399332438, 40.869433772434604 ], [ -73.942710007072577, 40.85289998636992 ], [ -73.946861160701047, 40.850596012875513 ], [ -73.946861399576676, 40.846953777520127 ], [ -73.946097258178057, 40.844178188583186 ], [ -73.949740464312711, 40.837050301011772 ], [ -73.950350546734967, 40.834391227187524 ], [ -73.954930199476877, 40.827679323718968 ], [ -73.956458769452951, 40.827910044757743 ], [ -73.957605067345384, 40.827330416366237 ], [ -73.959669790361758, 40.823686694185056 ], [ -73.959348820246674, 40.821460103711559 ], [ -73.960415955394424, 40.819781119848642 ], [ -73.965767141888136, 40.813763827406774 ], [ -73.978448314079287, 40.795821251225647 ], [ -73.993792770267717, 40.773281657990481 ], [ -74.006632955343392, 40.755510795794379 ], [ -74.00885264688371, 40.750851100743972 ], [ -74.010458509204341, 40.748533006221038 ], [ -74.009767858363702, 40.745113403516456 ], [ -74.01061158203558, 40.738505089786742 ], [ -74.012677713488486, 40.721516007766752 ], [ -74.01344219668259, 40.71838459454014 ], [ -74.017113563798532, 40.718558024739593 ], [ -74.01933409802713, 40.705567429833735 ], [ -74.016426090236621, 40.70168103587315 ], [ -74.011452898501076, 40.700404921836963 ], [ -74.010839469413, 40.701738392772313 ], [ -74.006095861681487, 40.704000693121174 ], [ -73.999208915936862, 40.707712913872314 ], [ -73.988497643451765, 40.709917151984428 ], [ -73.988650202814313, 40.709047040299396 ], [ -73.983352742209462, 40.709583758237187 ] ] ] } }
]
}
